{"fetched_at":"2026-03-29T02:12:04Z","count":15717,"tles":[{"name":"STARLINK-35321","line1":"1 66074U 25235S   26087.60309112  .00033710  00000+0  11449-2 0  9999","line2":"2 66074  53.1590 157.6707 0001065  93.9150 266.1972 15.30207560 25818","category":"Starlink"}]}